TDRS 3                  
1 19548U 88091B   20128.98773056 -.00000314  00000-0  00000+0 0  9999
2 19548  14.1978 357.7843 0037446 326.0518 209.0309  1.00277719102993
HST                     
1 20580U 90037B   20129.00785880  .00000438  00000-0  15673-4 0  9995
2 20580  28.4690 227.1744 0002835  20.2350 327.5360 15.09382698449849
TDRS 5                  
1 21639U 91054B   20129.27223184  .00000071  00000-0  00000-0 0  9991
2 21639  14.3055  11.0683 0029317   7.9198 137.8696  1.00271555105345
TDRS 6                  
1 22314U 93003B   20129.06160456 -.00000307  00000-0  00000-0 0  9990
2 22314  14.0298  14.1987 0008655  56.9361 131.5469  1.00276130100079
TDRS 7                  
1 23613U 95035B   20129.02422192 -.00000216  00000-0  00000-0 0  9993
2 23613  14.2057   4.8901 0032825  27.9491 287.0569  1.00272089 90870
ISS (ZARYA)             
1 25544U 98067A   20129.63563116  .00000642  00000-0  19571-4 0  9994
2 25544  51.6445 184.2257 0001103 257.5815 237.1296 15.49356015225888
LANDSAT 7               
1 25682U 99020A   20129.38057767  .00000013  00000-0  12582-4 0  9996
2 25682  98.0843 193.2315 0001327  67.0494 293.0845 14.57176461120404
TERRA                   
1 25994U 99068A   20129.47948081  .00000050  00000-0  21126-4 0  9997
2 25994  98.2138 204.3173 0001213  96.3029 263.8307 14.57111608 84496
TDRS 8                  
1 26388U 00034A   20129.08906274 -.00000243  00000-0  00000+0 0  9993
2 26388   9.1710  47.8233 0019414 321.2213 338.5843  1.00276923 72808
TIMED                   
1 26998U 01055B   20129.13040700  .00000094  00000-0  14272-4 0  9997
2 26998  74.0739  13.4697 0000464 191.4657 168.6513 14.88188128998491
TDRS 9                  
1 27389U 02011A   20129.27385604 -.00000295  00000-0  00000-0 0  9999
2 27389   7.4106  67.7893 0026918 284.3931 270.4548  1.00280008 68075
AQUA                    
1 27424U 02022A   20129.25006527  .00000074  00000-0  26508-4 0  9992
2 27424  98.2070  70.4643 0002756  96.3990  38.4983 14.57120751958018
TDRS 10                 
1 27566U 02055A   20129.19680152  .00000082  00000-0  00000-0 0  9994
2 27566   6.8391  53.8101 0009366 310.2314 122.1490  1.00275815 63862
SORCE                   
1 27651U 03004A   20128.86587018  .00000026  00000-0  16871-4 0  9999
2 27651  39.9946 196.3717 0021967  93.3138 267.0164 14.89109572938146
AURA                    
1 28376U 04026A   20129.16122904  .00000079  00000-0  27589-4 0  9998
2 28376  98.2063  72.5328 0001601  81.4781 278.6598 14.57111904841090
SWIFT                   
1 28485U 04047A   20128.86197786  .00000827  00000-0  26009-4 0  9995
2 28485  20.5571 309.0401 0010974 263.8246  96.0938 15.04605572847355
THEMIS A                
1 30580U 07004A   20128.67629216 -.00000536  00000-0  00000+0 0  9993
2 30580  14.1327  50.3481 8415168  22.6705 358.4226  0.87838028 46343
THEMIS D                
1 30797U 07004D   20128.69303384 -.00000529  00000-0  18492-1 0  9998
2 30797  12.6894  30.4753 8374061  44.2423 357.1237  0.87904875 21478
THEMIS E                
1 30798U 07004E   20128.73170940 -.00000522  00000-0  00000+0 0  9991
2 30798  11.6644  41.0703 8374675  36.3449 357.5728  0.87844146 46307
AIM                     
1 31304U 07015A   20129.17714189  .00000656  00000-0  40586-4 0  9990
2 31304  97.9124  10.4454 0006236 125.7297 234.4513 15.13551129714594
FGRST (GLAST)           
1 33053U 08029A   20129.09992711  .00000470  00000-0  10059-4 0  9995
2 33053  25.5838  15.1784 0012014 260.2386  99.6792 15.11334177657203
WISE                    
1 36119U 09071A   20129.18633385  .00000690  00000-0  26249-4 0  9990
2 36119  97.3322 165.9810 0003425 138.0938 222.0565 15.30061148577644
TDRS 11                 
1 39070U 13004A   20129.27925595  .00000065  00000-0  00000-0 0  9996
2 39070   3.8917 331.9945 0005967  46.7682 133.9390  1.00275204 26617
TDRS 12                 
1 39504U 14004A   20129.36885700 -.00000285  00000-0  00000+0 0  9996
2 39504   4.7064 338.2042 0001613 104.4830 235.6921  1.00278577 23074
GPM-CORE                
1 39574U 14009C   20129.22558104  .00002361  00000-0  37973-4 0  9998
2 39574  65.0058 288.4348 0011502 286.5380  73.4503 15.55997186351784
MMS 1                   
1 40482U 15011A   20126.99175926 -.00000001  00000-0  00000+0 0  9996
2 40482  27.1082 120.2784 8673453  20.1854  30.6309  0.28653008 11094
MMS 2                   
1 40483U 15011B   20126.99552083 -.00000002  00000-0  00000+0 0  9991
2 40483  27.1037 120.2759 8671096  20.1899  31.0161  0.28652668 11077
MMS 3                   
1 40484U 15011C   20126.99898148 -.00000002  00000-0  00000+0 0  9997
2 40484  27.1084 120.2618 8671820  20.2037  31.3659  0.28671221 11075
MMS 4                   
1 40485U 15011D   20126.99940972 -.00000002  00000-0  00000+0 0  9991
2 40485  27.1062 120.2880 8672462  20.1891  31.3834  0.28652693 11070
TDRS 13                 
1 42915U 17047A   20128.97827234 -.00000116  00000-0  00000-0 0  9994
2 42915   5.6377 330.2145 0017808  90.8235 146.0548  1.00272049  9978
JPSS-1                  
1 43013U 17073A   20129.17947106 -.00000020  00000-0  10982-4 0  9995
2 43013  98.7157  67.7553 0001541  89.9505 270.1848 14.19553113127946
